{
  "norad_id": 65924,
  "name": "STARLINK-34994",
  "history": [
    {
      "epoch": "2026-03-28T09:14:40.984512Z",
      "apogee_km": 476.0701468873658,
      "perigee_km": 474.3266583609375,
      "latitude_deg": 1.0039911977277187e-05,
      "longitude_deg": 114.13653588057645,
      "height_km": 476.0185253231632,
      "semi_major_axis_km": 6853.335402624151,
      "eccentricity": 0.0001272,
      "inclination_deg": 53.1597,
      "raan_deg": 78.6137,
      "arg_perigee_deg": 84.8714,
      "mean_anomaly_deg": 275.2432,
      "mean_motion_rev_day": 15.30205582
    },
    {
      "epoch": "2026-03-29T05:37:22.494432Z",
      "apogee_km": 476.04994830818396,
      "perigee_km": 474.32839277414405,
      "latitude_deg": -4.8094865345623944e-05,
      "longitude_deg": 163.6825316256009,
      "height_km": 476.06617248579937,
      "semi_major_axis_km": 6853.326170541163,
      "eccentricity": 0.0001256,
      "inclination_deg": 53.1596,
      "raan_deg": 74.6696,
      "arg_perigee_deg": 88.598,
      "mean_anomaly_deg": 271.5164,
      "mean_motion_rev_day": 15.30208674
    },
    {
      "epoch": "2026-03-30T05:08:10.899456Z",
      "apogee_km": 476.0856840167153,
      "perigee_km": 474.5395457835948,
      "latitude_deg": -2.2431465111112065e-05,
      "longitude_deg": 165.4634008755838,
      "height_km": 476.2917607818195,
      "semi_major_axis_km": 6853.449614900155,
      "eccentricity": 0.0001128,
      "inclination_deg": 53.1601,
      "raan_deg": 70.1178,
      "arg_perigee_deg": 96.0046,
      "mean_anomaly_deg": 264.1083,
      "mean_motion_rev_day": 15.30167331
    }
  ]
}